AFRICAN_SATELLITES = {
    "ZACube-1": {
        "country": "South Africa",
        "tle": (
            "1 39417U 13066AE  25091.40128168  .00001113  00000+0  54121-4 0  9995",
            "2 39417  97.8637  70.8212 0059317  20.4023 339.9301 14.81417328592485"
        )
    },
    "NigeriaSat-2": {
        "country": "Nigeria",
        "tle": (
            "1 37849U 11053A   25090.89851213  .00000045  00000+0  00000+0 0  9997",
            "2 37849  98.2766  89.2184 0001468  85.3473 274.7902 14.58896652717156"
        )
    },
    "EgyptSat-A": {
        "country": "Egypt",
        "tle": (
            "1 43717U 18098A   25090.81237784  .00000619  00000+0  26609-4 0  9996",
            "2 43717  97.4295 110.8192 0012168  92.1156 268.1443 15.22658175351642"
        )
    }
}
